{"type": "FeatureCollection", "features": [ {"type": "Feature", "properties": {"norad_id": 32184, "name": "FENGYUN 1C DEB", "group": "fengyun-1c-debris", "lat": -23.319826711024348, "lon": 133.88382712331142, "alt_km": 390.8408547734998, "timestamp": "2025-12-16T13:52:37.809298+00:00", "meta": {"OBJECT_NAME": "FENGYUN 1C DEB", "OBJECT_ID": "1999-025CUE", "EPOCH": "2025-12-15T08:25:55.388064", "MEAN_MOTION": 15.44289213, "ECCENTRICITY": 0.00703403, "INCLINATION": 98.1186, "RA_OF_ASC_NODE": 128.9863, "ARG_OF_PERICENTER": 338.7226, "MEAN_ANOMALY": 21.1098, "EPHEMERIS_TYPE": 0, "CLASSIFICATION_TYPE": "U", "NORAD_CAT_ID": 32184, "ELEMENT_SET_NO": 999, "REV_AT_EPOCH": 98444, "BSTAR": 0.0010594421, "MEAN_MOTION_DOT": 0.00053695, "MEAN_MOTION_DDOT": 0}, "tle": {"line1": "1 32184U 99025CUE 25349.35133551  .00053695  00000+0  10594-2 0  9990", "line2": "2 32184  98.1186 128.9863 0070340 338.7226  21.1098 15.44289213984444"}}, "geometry": {"type": "Point", "coordinates": [133.88382712331142, -23.319826711024348]}}, {"type": "Feature", "properties": {"norad_id": 32185, "name": "FENGYUN 1C DEB", "group": "fengyun-1c-debris", "lat": 1.9404352504038855, "lon": -162.88812664313497, "alt_km": 445.9559085461069, "timestamp": "2025-12-16T13:52:37.809308+00:00", "meta": {"OBJECT_NAME": "FENGYUN 1C DEB", "OBJECT_ID": "1999-025CUF", "EPOCH": "2025-12-15T07:31:41.249568", "MEAN_MOTION": 15.03776003, "ECCENTRICITY": 0.01614217, "INCLINATION": 98.9033, "RA_OF_ASC_NODE": 195.9617, "ARG_OF_PERICENTER": 6.9928, "MEAN_ANOMALY": 353.3492, "EPHEMERIS_TYPE": 0, "CLASSIFICATION_TYPE": "U", "NORAD_CAT_ID": 32185, "ELEMENT_SET_NO": 999, "REV_AT_EPOCH": 95054, "BSTAR": 0.0017655301, "MEAN_MOTION_DOT": 0.00032395, "MEAN_MOTION_DDOT": 0}, "tle": {"line1": "1 32185U 99025CUF 25349.31367187  .00032395  00000+0  17655-2 0  9990", "line2": "2 32185  98.9033 195.9617 0161421   6.9928 353.3492 15.03776003950544"}}, "geometry": {"type": "Point", "coordinates": [-162.88812664313497, 1.9404352504038855]}}, {"type": "Feature", "properties": {"norad_id": 32186, "name": "FENGYUN 1C DEB", "group": "fengyun-1c-debris", "lat": -22.866594632230935, "lon": 45.20218730373141, "alt_km": 1147.5450316681236, "timestamp": "2025-12-16T13:52:37.809318+00:00", "meta": {"OBJECT_NAME": "FENGYUN 1C DEB", "OBJECT_ID": "1999-025CUG", "EPOCH": "2025-12-15T21:24:06.579648", "MEAN_MOTION": 13.76517735, "ECCENTRICITY": 0.02748585, "INCLINATION": 99.6089, "RA_OF_ASC_NODE": 40.4118, "ARG_OF_PERICENTER": 192.6047, "MEAN_ANOMALY": 342.5031, "EPHEMERIS_TYPE": 0, "CLASSIFICATION_TYPE": "U", "NORAD_CAT_ID": 32186, "ELEMENT_SET_NO": 999, "REV_AT_EPOCH": 62653, "BSTAR": 0.00087842801, "MEAN_MOTION_DOT": 1.09e-05, "MEAN_MOTION_DDOT": 0}, "tle": {"line1": "1 32186U 99025CUG 25349.89174282  .00001090  00000+0  87843-3 0  9991", "line2": "2 32186  99.6089  40.4118 0274858 192.6047 342.5031 13.76517735626539"}}, "geometry": {"type": "Point", "coordinates": [45.20218730373141, -22.866594632230935]}}, {"type": "Feature", "properties": {"norad_id": 32187, "name": "FENGYUN 1C DEB", "group": "fengyun-1c-debris", "lat": 37.437312731978, "lon": -103.26039915775509, "alt_km": 849.1900264599944, "timestamp": "2025-12-16T13:52:37.809329+00:00", "meta": {"OBJECT_NAME": "FENGYUN 1C DEB", "OBJECT_ID": "1999-025CUH", "EPOCH": "2025-12-12T04:25:44.596416", "MEAN_MOTION": 13.50496102, "ECCENTRICITY": 0.02944417, "INCLINATION": 99.5053, "RA_OF_ASC_NODE": 65.1685, "ARG_OF_PERICENTER": 147.3043, "MEAN_ANOMALY": 244.1082, "EPHEMERIS_TYPE": 0, "CLASSIFICATION_TYPE": "U", "NORAD_CAT_ID": 32187, "ELEMENT_SET_NO": 999, "REV_AT_EPOCH": 66251, "BSTAR": 0.00072461752, "MEAN_MOTION_DOT": 5.68e-06, "MEAN_MOTION_DDOT": 0}, "tle": {"line1": "1 32187U 99025CUH 25346.18454394  .00000568  00000+0  72462-3 0  9996", "line2": "2 32187  99.5053  65.1685 0294441 147.3043 244.1082 13.50496102662513"}}, "geometry": {"type": "Point", "coordinates": [-103.26039915775509, 37.437312731978]}}, {"type": "Feature", "properties": {"norad_id": 32191, "name": "FENGYUN 1C DEB", "group": "fengyun-1c-debris", "lat": -23.3943796033433, "lon": -137.148636671418, "alt_km": 753.6211642723556, "timestamp": "2025-12-16T13:52:37.809339+00:00", "meta": {"OBJECT_NAME": "FENGYUN 1C DEB", "OBJECT_ID": "1999-025CUM", "EPOCH": "2025-12-12T09:31:01.273728", "MEAN_MOTION": 14.25192776, "ECCENTRICITY": 0.0093788, "INCLINATION": 98.7073, "RA_OF_ASC_NODE": 42.503, "ARG_OF_PERICENTER": 187.4274, "MEAN_ANOMALY": 172.5522, "EPHEMERIS_TYPE": 0, "CLASSIFICATION_TYPE": "U", "NORAD_CAT_ID": 32191, "ELEMENT_SET_NO": 999, "REV_AT_EPOCH": 64496, "BSTAR": 0.002278977, "MEAN_MOTION_DOT": 5.565e-05, "MEAN_MOTION_DDOT": 0}, "tle": {"line1": "1 32191U 99025CUM 25346.39654252  .00005565  00000+0  22790-2 0  9999", "line2": "2 32191  98.7073  42.5030 0093788 187.4274 172.5522 14.25192776644961"}}, "geometry": {"type": "Point", "coordinates": [-137.148636671418, -23.3943796033433]}}, {"type": "Feature", "properties": {"norad_id": 32192, "name": "FENGYUN 1C DEB", "group": "fengyun-1c-debris", "lat": 68.10762224032165, "lon": 63.41361245378479, "alt_km": 847.9512302583162, "timestamp": "2025-12-16T13:52:37.809348+00:00", "meta": {"OBJECT_NAME": "FENGYUN 1C DEB", "OBJECT_ID": "1999-025CUN", "EPOCH": "2025-12-15T09:33:11.894976", "MEAN_MOTION": 13.82514231, "ECCENTRICITY": 0.01818245, "INCLINATION": 98.653, "RA_OF_ASC_NODE": 220.0606, "ARG_OF_PERICENTER": 155.2201, "MEAN_ANOMALY": 205.7825, "EPHEMERIS_TYPE": 0, "CLASSIFICATION_TYPE": "U", "NORAD_CAT_ID": 32192, "ELEMENT_SET_NO": 999, "REV_AT_EPOCH": 92749, "BSTAR": 0.00029865372, "MEAN_MOTION_DOT": 3.29e-06, "MEAN_MOTION_DDOT": 0}, "tle": {"line1": "1 32192U 99025CUN 25349.39805434  .00000329  00000+0  29865-3 0  9997", "line2": "2 32192  98.6530 220.0606 0181824 155.2201 205.7825 13.82514231927496"}}, "geometry": {"type": "Point", "coordinates": [63.41361245378479, 68.10762224032165]}}, {"type": "Feature", "properties": {"norad_id": 32195, "name": "FENGYUN 1C DEB", "group": "fengyun-1c-debris", "lat": 12.768430154859715, "lon": -9.121250459944996, "alt_km": 859.7138034737964, "timestamp": "2025-12-16T13:52:37.809358+00:00", "meta": {"OBJECT_NAME": "FENGYUN 1C DEB", "OBJECT_ID": "1999-025CUR", "EPOCH": "2025-12-13T17:37:09.979392", "MEAN_MOTION": 14.08467164, "ECCENTRICITY": 0.00686498, "INCLINATION": 98.7725, "RA_OF_ASC_NODE": 350.1182, "ARG_OF_PERICENTER": 297.5653, "MEAN_ANOMALY": 61.8554, "EPHEMERIS_TYPE": 0, "CLASSIFICATION_TYPE": "U", "NORAD_CAT_ID": 32195, "ELEMENT_SET_NO": 999, "REV_AT_EPOCH": 63996, "BSTAR": 0.00078298942, "MEAN_MOTION_DOT": 1.329e-05, "MEAN_MOTION_DDOT": 0}, "tle": {"line1": "1 32195U 99025CUR 25347.73414328  .00001329  00000+0  78299-3 0  9990", "line2": "2 32195  98.7725 350.1182 0068649 297.5653  61.8554 14.08467164639963"}}, "geometry": {"type": "Point", "coordinates": [-9.121250459944996, 12.768430154859715]}}, {"type": "Feature", "properties": {"norad_id": 32197, "name": "FENGYUN 1C DEB", "group": "fengyun-1c-debris", "lat": 71.92063402087346, "lon": 108.45273368374946, "alt_km": 819.0830795202346, "timestamp": "2025-12-16T13:52:37.809368+00:00", "meta": {"OBJECT_NAME": "FENGYUN 1C DEB", "OBJECT_ID": "1999-025CUT", "EPOCH": "2025-12-13T12:29:47.615136", "MEAN_MOTION": 14.32670821, "ECCENTRICITY": 0.01611933, "INCLINATION": 98.9011, "RA_OF_ASC_NODE": 256.6231, "ARG_OF_PERICENTER": 227.5743, "MEAN_ANOMALY": 319.2426, "EPHEMERIS_TYPE": 0, "CLASSIFICATION_TYPE": "U", "NORAD_CAT_ID": 32197, "ELEMENT_SET_NO": 999, "REV_AT_EPOCH": 94434, "BSTAR": 0.00063761997, "MEAN_MOTION_DOT": 1.951e-05, "MEAN_MOTION_DDOT": 0}, "tle": {"line1": "1 32197U 99025CUT 25347.52068999  .00001951  00000+0  63762-3 0  9998", "line2": "2 32197  98.9011 256.6231 0161193 227.5743 319.2426 14.32670821944343"}}, "geometry": {"type": "Point", "coordinates": [108.45273368374946, 71.92063402087346]}}, {"type": "Feature", "properties": {"norad_id": 32198, "name": "FENGYUN 1C DEB", "group": "fengyun-1c-debris", "lat": 37.57581993063863, "lon": -36.33506226804306, "alt_km": 912.8134515718757, "timestamp": "2025-12-16T13:52:37.809378+00:00", "meta": {"OBJECT_NAME": "FENGYUN 1C DEB", "OBJECT_ID": "1999-025CUU", "EPOCH": "2025-12-14T03:14:43.755360", "MEAN_MOTION": 14.08840067, "ECCENTRICITY": 0.00955906, "INCLINATION": 98.3425, "RA_OF_ASC_NODE": 134.9205, "ARG_OF_PERICENTER": 288.2926, "MEAN_ANOMALY": 70.7863, "EPHEMERIS_TYPE": 0, "CLASSIFICATION_TYPE": "U", "NORAD_CAT_ID": 32198, "ELEMENT_SET_NO": 999, "REV_AT_EPOCH": 56965, "BSTAR": 0.0021987538, "MEAN_MOTION_DOT": 3.921e-05, "MEAN_MOTION_DDOT": 0}, "tle": {"line1": "1 32198U 99025CUU 25348.13522865  .00003921  00000+0  21988-2 0  9996", "line2": "2 32198  98.3425 134.9205 0095590 288.2926  70.7863 14.08840067569655"}}, "geometry": {"type": "Point", "coordinates": [-36.33506226804306, 37.57581993063863]}}, {"type": "Feature", "properties": {"norad_id": 32200, "name": "FENGYUN 1C DEB", "group": "fengyun-1c-debris", "lat": 30.032737396163572, "lon": -135.37127659455138, "alt_km": 856.316498142276, "timestamp": "2025-12-16T13:52:37.809388+00:00", "meta": {"OBJECT_NAME": "FENGYUN 1C DEB", "OBJECT_ID": "1999-025CUW", "EPOCH": "2025-12-14T13:40:32.967264", "MEAN_MOTION": 14.15707282, "ECCENTRICITY": 0.00396236, "INCLINATION": 98.7905, "RA_OF_ASC_NODE": 37.5159, "ARG_OF_PERICENTER": 284.4823, "MEAN_ANOMALY": 75.1956, "EPHEMERIS_TYPE": 0, "CLASSIFICATION_TYPE": "U", "NORAD_CAT_ID": 32200, "ELEMENT_SET_NO": 999, "REV_AT_EPOCH": 94389, "BSTAR": 0.001120287, "MEAN_MOTION_DOT": 2.17e-05, "MEAN_MOTION_DDOT": 0}, "tle": {"line1": "1 32200U 99025CUW 25348.56982601  .00002170  00000+0  11203-2 0  9999", "line2": "2 32200  98.7905  37.5159 0039623 284.4823  75.1956 14.15707282943894"}}, "geometry": {"type": "Point", "coordinates": [-135.37127659455138, 30.032737396163572]}}]}